      2.10          N: GNSS NAV DATA                        RINEX VERSION / TYPE
fic2rin                                 07/29/2019 00:19:30 PGM / RUN BY / DATE
                                                            END OF HEADER
11 19  7 28 20  0  0.0-5.496400408447e-04 9.663381206337e-12 0.000000000000e+00
    6.400000000000e+01-1.150625000000e+02 5.696308702693e-09 2.660653535196e+00
   -6.068497896194e-06 1.675330381840e-02 3.339722752571e-06 5.153720924377e+03
    7.200000000000e+04 2.738088369370e-07 1.723356611417e+00 5.587935447693e-09
    9.099287591452e-01 2.870937500000e+02 1.915606058099e+00-8.520354906982e-09
   -1.889364413897e-10 1.000000000000e+00 2.064000000000e+03 0.000000000000e+00
    2.400000000000e+00 0.000000000000e+00-1.210719347000e-08 6.400000000000e+01
    6.480000000000e+04 4.000000000000e+00
21 19  7 28 20  0  0.0-1.463210210204e-04 6.821210263297e-12 0.000000000000e+00
    5.800000000000e+01-1.363750000000e+02 4.651265172436e-09 1.544054444705e+00
   -7.385388016701e-06 2.449437149335e-02 8.028000593185e-06 5.153701066971e+03
    7.200000000000e+04 2.384185791016e-07 2.112415689610e+00-6.109476089478e-07
    9.492756846854e-01 2.225000000000e+02-1.425687871840e+00-8.097122991959e-09
    3.000124967247e-11 1.000000000000e+00 2.064000000000e+03 0.000000000000e+00
    2.400000000000e+00 0.000000000000e+00-1.024454832077e-08 5.800000000000e+01
    6.480000000000e+04 4.000000000000e+00
31 19  7 28 20  0  0.0 2.117641270161e-05-2.614797267597e-12 0.000000000000e+00
    7.100000000000e+01 3.693750000000e+01 4.283392706214e-09 2.453845449632e+00
    1.911073923111e-06 9.237665566616e-03 1.141801476479e-05 5.153662868500e+03
    7.200000000000e+04-1.210719347000e-07-9.408762366661e-01 3.539025783539e-08
    9.594430589631e-01 1.613437500000e+02 1.386534298719e-02-7.745679781510e-09
   -5.868101572842e-10 1.000000000000e+00 2.064000000000e+03 0.000000000000e+00
    2.400000000000e+00 0.000000000000e+00-1.350417733192e-08 7.100000000000e+01
    6.480000000000e+04 4.000000000000e+00
32 19  7 28 20  0  0.0 1.532770693302e-05 1.489297574153e-11 0.000000000000e+00
    3.900000000000e+01-5.531250000000e+00 5.090212027763e-09-3.684273601927e-02
   -3.427267074585e-07 3.212296287529e-03 5.707144737244e-06 5.153599582672e+03
    7.200000000000e+04 4.656612873077e-08-2.024244140888e+00 3.725290298462e-08
    9.564154651488e-01 2.664062500000e+02-2.479752530686e+00-8.269630177576e-09
   -2.421529437849e-10 1.000000000000e+00 2.064000000000e+03 0.000000000000e+00
    2.400000000000e+00 0.000000000000e+00 4.656612873077e-10 3.900000000000e+01
    6.480000000000e+04 4.000000000000e+00
29 19  7 28 20  0  0.0 1.395232975483e-04-9.890754881781e-12 0.000000000000e+00
    4.900000000000e+01-4.400000000000e+01 4.239819462642e-09-3.449762347877e-01
   -2.549961209297e-06 1.211589202285e-03 1.791864633560e-06 5.153717723846e+03
    7.200000000000e+04-2.235174179077e-08 1.190286882718e+00 3.539025783539e-08
    9.854825267886e-01 3.591250000000e+02 1.875294734536e+00-8.247129240322e-09
   -2.285809498855e-11 1.000000000000e+00 2.064000000000e+03 0.000000000000e+00
    2.400000000000e+00 0.000000000000e+00-9.778887033463e-09 4.900000000000e+01
    6.480000000000e+04 4.000000000000e+00
17 19  7 28 20  0  0.0 9.680958464742e-05 6.821210263297e-12 0.000000000000e+00
    6.300000000000e+01-3.465625000000e+01 4.340895101419e-09-8.225743335570e-01
   -1.601874828339e-06 1.291090366431e-02 2.233311533928e-06 5.153773094177e+03
    7.200000000000e+04-1.918524503708e-07 1.179047185099e+00 1.136213541031e-07
    9.839893028984e-01 3.533750000000e+02-1.710736003981e+00-8.390349491734e-09
    3.321566928024e-11 1.000000000000e+00 2.064000000000e+03 0.000000000000e+00
    2.400000000000e+00 0.000000000000e+00-1.117587089539e-08 6.300000000000e+01
    6.480000000000e+04 4.000000000000e+00
12 19  7 28 20  0  0.0 2.194866538048e-04-3.637978807092e-12 0.000000000000e+00
    5.000000000000e+01 1.231562500000e+02 3.860517948925e-09 2.042861853716e+00
    6.301328539848e-06 7.523767882958e-03 5.699694156647e-06 5.153609201431e+03
    7.200000000000e+04 1.676380634308e-08 1.455672494717e-01-2.067536115646e-07
    9.824171487261e-01 2.795625000000e+02 1.106203441014e+00-7.892471610265e-09
    3.160845947635e-10 1.000000000000e+00 2.064000000000e+03 0.000000000000e+00
    2.400000000000e+00 0.000000000000e+00-1.257285475731e-08 5.000000000000e+01
    6.480000000000e+04 4.000000000000e+00
26 19  7 28 20  0  0.0 1.766718924046e-06 9.208633855451e-12 0.000000000000e+00
    1.850000000000e+02 1.303750000000e+02 4.480543775490e-09 1.143058546005e+00
    6.763264536858e-06 3.750105737709e-03 7.128342986107e-06 5.153651987076e+03
    7.200000000000e+04-1.862645149231e-08 5.081851908101e-02 3.166496753693e-08
    9.510836422341e-01 2.352187500000e+02 1.513478034892e-01-8.196412842066e-09
    1.900079145923e-10 1.000000000000e+00 2.064000000000e+03 0.000000000000e+00
    3.400000000000e+00 0.000000000000e+00 7.450580596924e-09 1.850000000000e+02
    6.480000000000e+04 4.000000000000e+00
26 19  7 28 19 59 44.0 1.765321940184e-06 9.208633855451e-12 0.000000000000e+00
    1.500000000000e+01 1.303750000000e+02 4.480186617756e-09 1.140725514974e+00
    6.765127182007e-06 3.750108415261e-03 7.128342986107e-06 5.153651988983e+03
    7.198400000000e+04-1.862645149231e-08 5.081866390990e-02 3.352761268616e-08
    9.510836466229e-01 2.352187500000e+02 1.513470325314e-01-8.196055684332e-09
    1.900079145923e-10 1.000000000000e+00 2.064000000000e+03 0.000000000000e+00
    2.400000000000e+00 0.000000000000e+00 7.450580596924e-09 1.500000000000e+01
    6.582000000000e+04 4.000000000000e+00
 3 19  7 28 19 59 44.0 1.783114857972e-04-2.501110429876e-12 0.000000000000e+00
    2.000000000000e+00-5.687500000000e+00 4.463757361983e-09 2.362074487529e+00
   -3.818422555923e-07 2.391880960204e-03 9.469687938690e-06 5.153744821548e+03
    7.198400000000e+04-1.154839992523e-07-3.063056753774e+00-6.891787052155e-08
    9.637450636217e-01 1.975625000000e+02 6.617556905865e-01-7.832111953186e-09
    4.771627328860e-10 1.000000000000e+00 2.064000000000e+03 0.000000000000e+00
    2.400000000000e+00 0.000000000000e+00 1.862645149231e-09 2.000000000000e+00
    6.966000000000e+04 4.000000000000e+00
 3 19  7 28 21 59 44.0 1.782933250070e-04-2.501110429876e-12 0.000000000000e+00
    3.000000000000e+00-1.456250000000e+01 4.530188700543e-09-2.870848182487e+00
   -7.748603820801e-07 2.393389586359e-03 9.777024388313e-06 5.153741928101e+03
    7.918400000000e+04 1.117587089539e-08-3.063113200468e+00-1.341104507446e-07
    9.637485629218e-01 1.910625000000e+02 6.616310880020e-01-7.841040896541e-09
    5.168072413817e-10 1.000000000000e+00 2.064000000000e+03 0.000000000000e+00
    2.400000000000e+00 0.000000000000e+00 1.862645149231e-09 3.000000000000e+00
    7.200000000000e+04 4.000000000000e+00
26 19  7 28 21 59 44.0 1.831445842981e-06 9.208633855451e-12 0.000000000000e+00
    1.700000000000e+01 1.401875000000e+02 4.561261423418e-09 2.191396364798e+00
    7.191672921181e-06 3.750551142730e-03 6.705522537231e-06 5.153648571014e+03
    7.918400000000e+04-3.725290298462e-09 5.075982680767e-02 3.725290298462e-09
    9.510848476786e-01 2.448437500000e+02 1.508709331571e-01-8.204270312218e-09
    1.557207721095e-10 1.000000000000e+00 2.064000000000e+03 0.000000000000e+00
    2.400000000000e+00 0.000000000000e+00 7.450580596924e-09 1.700000000000e+01
    7.200000000000e+04 4.000000000000e+00
 1 19  7 28 22  0  0.0-8.038850501180e-05-1.091393642128e-11 0.000000000000e+00
    1.000000000000e+01-1.260000000000e+02 4.028739241732e-09-1.847110463496e+00
   -6.657093763351e-06 9.081544703804e-03 8.290633559227e-06 5.153654802322e+03
    7.920000000000e+04 1.229345798492e-07 2.178315545277e+00-8.754432201385e-08
    9.764348100292e-01 2.244687500000e+02 7.433951038128e-01-7.723893159725e-09
    1.146476326769e-10 1.000000000000e+00 2.064000000000e+03 0.000000000000e+00
    2.400000000000e+00 0.000000000000e+00 5.587935447693e-09 1.000000000000e+01
    7.200000000000e+04 4.000000000000e+00
 2 19  7 28 22  0  0.0-2.705617807806e-04-8.526512829121e-12 0.000000000000e+00
    9.500000000000e+01-1.070625000000e+02 4.600905931914e-09-1.577952266651e+00
   -5.193054676056e-06 1.894168602303e-02 8.136034011841e-06 5.153757848740e+03
    7.920000000000e+04 2.104789018631e-07 2.108291119359e+00 4.451721906662e-07
    9.554846381704e-01 2.154375000000e+02-1.726757455613e+00-7.999618930524e-09
   -8.928943354902e-12 1.000000000000e+00 2.064000000000e+03 0.000000000000e+00
    2.400000000000e+00 0.000000000000e+00-2.048909664154e-08 9.500000000000e+01
    7.200000000000e+04 4.000000000000e+00
 7 19  7 28 22  0  0.0-7.378961890936e-05-7.730704965070e-12 0.000000000000e+00
    2.400000000000e+01 2.253125000000e+01 4.347681098369e-09-2.462654545435e+00
    1.065433025360e-06 1.307593914680e-02 1.090019941330e-05 5.153742616653e+03
    7.920000000000e+04 1.490116119385e-08-9.552379009442e-01-1.173466444016e-07
    9.549016287429e-01 1.642187500000e+02-2.444898219253e+00-7.665319291316e-09
   -4.375182243902e-10 1.000000000000e+00 2.064000000000e+03 0.000000000000e+00
    2.400000000000e+00 0.000000000000e+00-1.117587089539e-08 2.400000000000e+01
    7.200000000000e+04 4.000000000000e+00
 5 19  7 28 22  0  0.0-2.379529178143e-07-2.273736754432e-13 0.000000000000e+00
    9.400000000000e+01 3.437500000000e-01 4.955920719705e-09 1.099248188648e+00
    2.533197402954e-07 5.809228401631e-03 9.732320904732e-06 5.153735248566e+03
    7.920000000000e+04-2.607703208923e-08-3.090810272974e+00 1.117587089539e-07
    9.506323875975e-01 1.879687500000e+02 7.431295139614e-01-8.186412425508e-09
    4.518045337580e-10 1.000000000000e+00 2.064000000000e+03 0.000000000000e+00
    2.400000000000e+00 0.000000000000e+00-1.117587089539e-08 9.400000000000e+01
    7.200000000000e+04 4.000000000000e+00
